start=new Date('2023-02-25T00:00:00.000Z').valueOf();
sats=[{"MEAN_ANOMALY":"264.1576","OBJECT_TYPE":"PAYLOAD","CENTER_NAME":"EARTH","OBJECT_ID":"2021-021AN","EPOCH":"2023-02-24T18:44:30.751872","COUNTRY_CODE":"US","SITE":"AFETR","MEAN_MOTION_DDOT":"0.0000000000000","REF_FRAME":"TEME","TIME_SYSTEM":"UTC","TLE_LINE2":"2 47896  53.0531 224.7035 0001283  95.9559 264.1576 15.06383745108790","BSTAR":"0.00012379000000","SEMIMAJOR_AXIS":"6925.398","TLE_LINE1":"1 47896U 21021AN  23055.78091148  .00001562  00000-0  12379-3 0  9992","PERIOD":"95.593","FILE":"3835059","ARG_OF_PERICENTER":"95.9559","ELEMENT_SET_NO":"999","OBJECT_NAME":"STARLINK-2356","GP_ID":"226775655","ECCENTRICITY":"0.00012830","RA_OF_ASC_NODE":"224.7035","CLASSIFICATION_TYPE":"U","NORAD_CAT_ID":"47896","DECAY_DATE":null,"MEAN_MOTION_DOT":"0.00001562","MEAN_MOTION":"15.06383745","PERIAPSIS":"546.375","INCLINATION":"53.0531","LAUNCH_DATE":"2021-03-14","MEAN_ELEMENT_THEORY":"SGP4","RCS_SIZE":"LARGE","APOAPSIS":"548.152","EPHEMERIS_TYPE":"0","REV_AT_EPOCH":"10879"},{"SITE":"AFETR","EPOCH":"2023-02-24T17:17:33.772992","COUNTRY_CODE":"US","TIME_SYSTEM":"UTC","REF_FRAME":"TEME","MEAN_MOTION_DDOT":"0.0000000000000","OBJECT_TYPE":"PAYLOAD","MEAN_ANOMALY":"266.3692","OBJECT_ID":"2021-021AP","CENTER_NAME":"EARTH","DECAY_DATE":null,"CLASSIFICATION_TYPE":"U","NORAD_CAT_ID":"47897","APOAPSIS":"548.079","REV_AT_EPOCH":"10905","EPHEMERIS_TYPE":"0","RCS_SIZE":"LARGE","MEAN_ELEMENT_THEORY":"SGP4","PERIAPSIS":"546.419","INCLINATION":"53.0509","LAUNCH_DATE":"2021-03-14","MEAN_MOTION_DOT":"0.00000086","MEAN_MOTION":"15.06388451","PERIOD":"95.593","SEMIMAJOR_AXIS":"6925.384","TLE_LINE1":"1 47897U 21021AP  23055.72052978  .00000086  00000-0  24643-4 0  9993","BSTAR":"0.00002464300000","TLE_LINE2":"2 47897  53.0509 209.9751 0001198  93.7434 266.3692 15.06388451109051","RA_OF_ASC_NODE":"209.9751","OBJECT_NAME":"STARLINK-2357","GP_ID":"226776405","ECCENTRICITY":"0.00011980","ARG_OF_PERICENTER":"93.7434","ELEMENT_SET_NO":"999","FILE":"3835059"},{"BSTAR":"0.00008586400000","TLE_LINE2":"2 47898  53.0526 210.0034 0000927  85.0367 275.0728 15.06392853108996","PERIOD":"95.593","TLE_LINE1":"1 47898U 21021AQ  23055.71410142  .00000998  00000-0  85864-4 0  9998","SEMIMAJOR_AXIS":"6925.370","ARG_OF_PERICENTER":"85.0367","ELEMENT_SET_NO":"999","FILE":"3835059","RA_OF_ASC_NODE":"210.0034","GP_ID":"226777154","ECCENTRICITY":"0.00009270","OBJECT_NAME":"STARLINK-2358","NORAD_CAT_ID":"47898","CLASSIFICATION_TYPE":"U","DECAY_DATE":null,"LAUNCH_DATE":"2021-03-14","PERIAPSIS":"546.593","INCLINATION":"53.0526","MEAN_MOTION":"15.06392853","MEAN_MOTION_DOT":"0.00000998","REV_AT_EPOCH":"10899","EPHEMERIS_TYPE":"0","APOAPSIS":"547.877","RCS_SIZE":"LARGE","MEAN_ELEMENT_THEORY":"SGP4","OBJECT_TYPE":"PAYLOAD","MEAN_ANOMALY":"275.0728","OBJECT_ID":"2021-021AQ","CENTER_NAME":"EARTH","COUNTRY_CODE":"US","EPOCH":"2023-02-24T17:08:18.362688","SITE":"AFETR","TIME_SYSTEM":"UTC","MEAN_MOTION_DDOT":"0.0000000000000","REF_FRAME":"TEME"},{"EPOCH":"2023-02-24T18:38:30.771456","COUNTRY_CODE":"US","SITE":"AFETR","REF_FRAME":"TEME","MEAN_MOTION_DDOT":"0.0000000000000","TIME_SYSTEM":"UTC","MEAN_ANOMALY":"260.2078","OBJECT_TYPE":"PAYLOAD","CENTER_NAME":"EARTH","OBJECT_ID":"2021-021AR","CLASSIFICATION_TYPE":"U","NORAD_CAT_ID":"47899","DECAY_DATE":null,"MEAN_MOTION_DOT":"0.00004958","MEAN_MOTION":"15.06398923","INCLINATION":"53.0543","PERIAPSIS":"546.410","LAUNCH_DATE":"2021-03-14","MEAN_ELEMENT_THEORY":"SGP4","RCS_SIZE":"LARGE","APOAPSIS":"548.024","EPHEMERIS_TYPE":"0","REV_AT_EPOCH":"10920","BSTAR":"0.00035149000000","TLE_LINE2":"2 47899  53.0543 199.7122 0001165  99.9042 260.2078 15.06398923109209","SEMIMAJOR_AXIS":"6925.352","TLE_LINE1":"1 47899U 21021AR  23055.77674504  .00004958  00000-0  35149-3 0  9999","PERIOD":"95.592","FILE":"3835059","ELEMENT_SET_NO":"999","ARG_OF_PERICENTER":"99.9042","OBJECT_NAME":"STARLINK-2359","GP_ID":"226775906","ECCENTRICITY":"0.00011650","RA_OF_ASC_NODE":"199.7122"},{"PERIAPSIS":"546.343","INCLINATION":"53.0511","LAUNCH_DATE":"2021-03-14","MEAN_MOTION_DOT":"-0.00008623","MEAN_MOTION":"15.06389859","APOAPSIS":"548.146","REV_AT_EPOCH":"10906","EPHEMERIS_TYPE":"0","MEAN_ELEMENT_THEORY":"SGP4","RCS_SIZE":"LARGE","CLASSIFICATION_TYPE":"U","NORAD_CAT_ID":"47900","DECAY_DATE":null,"ELEMENT_SET_NO":"999","ARG_OF_PERICENTER":"88.9886","FILE":"3835059","RA_OF_ASC_NODE":"209.6113","OBJECT_NAME":"STARLINK-2360","GP_ID":"226776155","ECCENTRICITY":"0.00013020","BSTAR":"-0.00056084000000","TLE_LINE2":"2 47900  53.0511 209.6113 0001302  88.9886 271.1252 15.06389859109062","PERIOD":"95.593","SEMIMAJOR_AXIS":"6925.380","TLE_LINE1":"1 47900U 21021AS  23055.80161699 -.00008623  00000-0 -56084-3 0  9998","TIME_SYSTEM":"UTC","REF_FRAME":"TEME","MEAN_MOTION_DDOT":"0.0000000000000","EPOCH":"2023-02-24T19:14:19.707936","COUNTRY_CODE":"US","SITE":"AFETR","OBJECT_ID":"2021-021AS","CENTER_NAME":"EARTH","OBJECT_TYPE":"PAYLOAD","MEAN_ANOMALY":"271.1252"},{"PERIOD":"95.592","SEMIMAJOR_AXIS":"6925.352","TLE_LINE1":"1 47901U 21021AT  23055.76664813  .00019232  00000-0  13065-2 0  9997","TLE_LINE2":"2 47901  53.0517 199.8547 0001206  98.7776 261.3349 15.06398784109188","BSTAR":"0.00130650000000","RA_OF_ASC_NODE":"199.8547","OBJECT_NAME":"STARLINK-2361","ECCENTRICITY":"0.00012060","GP_ID":"226776905","ELEMENT_SET_NO":"999","ARG_OF_PERICENTER":"98.7776","FILE":"3835059","DECAY_DATE":null,"CLASSIFICATION_TYPE":"U","NORAD_CAT_ID":"47901","APOAPSIS":"548.052","EPHEMERIS_TYPE":"0","REV_AT_EPOCH":"10918","RCS_SIZE":"LARGE","MEAN_ELEMENT_THEORY":"SGP4","INCLINATION":"53.0517","PERIAPSIS":"546.382","LAUNCH_DATE":"2021-03-14","MEAN_MOTION_DOT":"0.00019232","MEAN_MOTION":"15.06398784","OBJECT_TYPE":"PAYLOAD","MEAN_ANOMALY":"261.3349","OBJECT_ID":"2021-021AT","CENTER_NAME":"EARTH","SITE":"AFETR","EPOCH":"2023-02-24T18:23:58.398432","COUNTRY_CODE":"US","TIME_SYSTEM":"UTC","REF_FRAME":"TEME","MEAN_MOTION_DDOT":"0.0000000000000"},{"MEAN_MOTION":"15.06391174","MEAN_MOTION_DOT":"0.00000961","LAUNCH_DATE":"2021-03-14","PERIAPSIS":"546.277","INCLINATION":"53.0518","MEAN_ELEMENT_THEORY":"SGP4","RCS_SIZE":"LARGE","REV_AT_EPOCH":"10901","EPHEMERIS_TYPE":"0","APOAPSIS":"548.205","NORAD_CAT_ID":"47902","CLASSIFICATION_TYPE":"U","DECAY_DATE":null,"FILE":"3835059","ELEMENT_SET_NO":"999","ARG_OF_PERICENTER":"99.0644","ECCENTRICITY":"0.00013920","GP_ID":"226776655","OBJECT_NAME":"STARLINK-2362","RA_OF_ASC_NODE":"219.8431","BSTAR":"0.00008342000000","TLE_LINE2":"2 47902  53.0518 219.8431 0001392  99.0644 261.0503 15.06391174109016","TLE_LINE1":"1 47902U 21021AU  23055.75003903  .00000961  00000-0  83420-4 0  9997","SEMIMAJOR_AXIS":"6925.376","PERIOD":"95.593","MEAN_MOTION_DDOT":"0.0000000000000","REF_FRAME":"TEME","TIME_SYSTEM":"UTC","COUNTRY_CODE":"US","EPOCH":"2023-02-24T18:00:03.372192","SITE":"AFETR","CENTER_NAME":"EARTH","OBJECT_ID":"2021-021AU","MEAN_ANOMALY":"261.0503","OBJECT_TYPE":"PAYLOAD"},{"COUNTRY_CODE":"US","EPOCH":"2023-02-24T18:33:12.337344","SITE":"AFETR","TIME_SYSTEM":"UTC","MEAN_MOTION_DDOT":"0.0000000000000","REF_FRAME":"TEME","OBJECT_TYPE":"PAYLOAD","MEAN_ANOMALY":"274.3181","OBJECT_ID":"2021-021AV","CENTER_NAME":"EARTH","NORAD_CAT_ID":"47903","CLASSIFICATION_TYPE":"U","DECAY_DATE":null,"LAUNCH_DATE":"2021-03-14","INCLINATION":"53.0517","PERIAPSIS":"546.408","MEAN_MOTION":"15.06397026","MEAN_MOTION_DOT":"0.00010286","REV_AT_EPOCH":"10953","EPHEMERIS_TYPE":"0","APOAPSIS":"548.038","MEAN_ELEMENT_THEORY":"SGP4","RCS_SIZE":"LARGE","BSTAR":"0.00070849000000","TLE_LINE2":"2 47903  53.0517 199.7291 0001177  85.7943 274.3181 15.06397026109539","PERIOD":"95.592","TLE_LINE1":"1 47903U 21021AV  23055.77305946  .00010286  00000-0  70849-3 0  9993","SEMIMAJOR_AXIS":"6925.358","ELEMENT_SET_NO":"999","ARG_OF_PERICENTER":"85.7943","FILE":"3835059","RA_OF_ASC_NODE":"199.7291","ECCENTRICITY":"0.00011770","GP_ID":"226775407","OBJECT_NAME":"STARLINK-2363"},{"SEMIMAJOR_AXIS":"6925.356","TLE_LINE1":"1 47904U 21021AW  23055.70398025  .00009373  00000-0  64732-3 0  9996","PERIOD":"95.592","TLE_LINE2":"2 47904  53.0521 200.0509 0001181  99.7426 260.3696 15.06397484109162","BSTAR":"0.00064732000000","OBJECT_NAME":"STARLINK-2364","ECCENTRICITY":"0.00011810","GP_ID":"226775656","RA_OF_ASC_NODE":"200.0509","FILE":"3835059","ELEMENT_SET_NO":"999","ARG_OF_PERICENTER":"99.7426","DECAY_DATE":null,"CLASSIFICATION_TYPE":"U","NORAD_CAT_ID":"47904","RCS_SIZE":"LARGE","MEAN_ELEMENT_THEORY":"SGP4","APOAPSIS":"548.039","REV_AT_EPOCH":"10916","EPHEMERIS_TYPE":"0","MEAN_MOTION_DOT":"0.00009373","MEAN_MOTION":"15.06397484","PERIAPSIS":"546.403","INCLINATION":"53.0521","LAUNCH_DATE":"2021-03-14","MEAN_ANOMALY":"260.3696","OBJECT_TYPE":"PAYLOAD","CENTER_NAME":"EARTH","OBJECT_ID":"2021-021AW","SITE":"AFETR","EPOCH":"2023-02-24T16:53:43.893600","COUNTRY_CODE":"US","REF_FRAME":"TEME","MEAN_MOTION_DDOT":"0.0000000000000","TIME_SYSTEM":"UTC"},{"COUNTRY_CODE":"US","EPOCH":"2023-02-24T19:58:07.862016","SITE":"AFETR","TIME_SYSTEM":"UTC","MEAN_MOTION_DDOT":"0.0000000000000","REF_FRAME":"TEME","OBJECT_TYPE":"PAYLOAD","MEAN_ANOMALY":"251.5610","OBJECT_ID":"2021-021AX","CENTER_NAME":"EARTH","NORAD_CAT_ID":"47905","CLASSIFICATION_TYPE":"U","DECAY_DATE":null,"LAUNCH_DATE":"2021-03-14","PERIAPSIS":"546.521","INCLINATION":"53.0521","MEAN_MOTION":"15.06395734","MEAN_MOTION_DOT":"0.00018076","EPHEMERIS_TYPE":"0","REV_AT_EPOCH":"10931","APOAPSIS":"547.932","MEAN_ELEMENT_THEORY":"SGP4","RCS_SIZE":"LARGE","TLE_LINE2":"2 47905  53.0521 199.4639 0001019 108.5489 251.5610 15.06395734109317","BSTAR":"0.00122940000000","PERIOD":"95.592","TLE_LINE1":"1 47905U 21021AX  23055.83203544  .00018076  00000-0  12294-2 0  9997","SEMIMAJOR_AXIS":"6925.362","ELEMENT_SET_NO":"999","ARG_OF_PERICENTER":"108.5489","FILE":"3835059","RA_OF_ASC_NODE":"199.4639","GP_ID":"226776406","ECCENTRICITY":"0.00010190","OBJECT_NAME":"STARLINK-2365"}];
